{
  "norad_id": 65338,
  "name": "STARLINK-34751",
  "history": [
    {
      "epoch": "2026-03-28T19:12:39.761280",
      "apogee_km": 476.1423950674316,
      "perigee_km": 474.24813402950986,
      "latitude_deg": -21.76895165956144,
      "longitude_deg": 70.64417920005508,
      "semi_major_axis_km": 6853.33226454847,
      "eccentricity": 0.0001382,
      "inclination_deg": 53.1596,
      "raan_deg": 117.9064,
      "arg_perigee_deg": 86.3051,
      "mean_anomaly_deg": 273.8108,
      "mean_motion_rev_day": 15.30206633
    }
  ]
}